{
    "name": "Волинська губернія",
    "name:ru": "Волинская губерния",
    "name:en": "Volhynian Governorate",
    "wikidata": "Q1333965",
    "wikipedia": "uk:Волинська_губернія",
    "openhistoricalmap": "r2696487",
    "type": "governorate",
    "povity": [
        {
            "name": "Володимир-Волинський повіт",
            "name:ru": "Владимир-Волынский уезд",
            "name:en": "Volodymyr-Volynsky Uyezd",
            "wikidata": "Q4112989",
            "wikipedia": "uk:Володимирський_повіт_(1795—1920)",
            "type": "povit",
            "volosti": [
                {
                    "name": "Бережецька волость",
                    "name:ru": "Бережецкая волость",
                    "center:ru": "Бережцы с.",
                    "name:en": "Berezhetska volost",
                    "wikipedia": "uk:Бережецька_волость",
                    "type": "volost",
                    "wikidata": "Q9268991",
                    "area:1885": "54025",
                    "population:1885": "5680",
                    "center:uk": "Бережці"
                },
                {
                    "name": "Бранська волость",
                    "name:ru": "Бранская волость",
                    "center:ru": "Браны. с.",
                    "name:en": "Branska volost",
                    "wikipedia": "uk:Бранська_волость",
                    "type": "volost",
                    "wikidata": "Q20073909",
                    "area:1885": "15351",
                    "population:1885": "6423",
                    "center:uk": "Брани"
                },
                {
                    "name": "Вербська волость",
                    "name:ru": "Вербская волость",
                    "center:ru": "Верба с.",
                    "name:en": "Verbska volost",
                    "wikipedia": "uk:Вербська_волость",
                    "type": "volost",
                    "wikidata": "Q9273157",
                    "area:1885": "21886",
                    "population:1885": "5540",
                    "center:uk": "Верба"
                },
                {
                    "name": "Головенська волость",
                    "name:ru": "Головенская волость",
                    "center:ru": "Головно с.",
                    "name:en": "Holovenska volost",
                    "wikipedia": "uk:Головенська_волость",
                    "type": "volost",
                    "wikidata": "Q9270136",
                    "area:1885": "10618",
                    "population:1885": "6923",
                    "center:uk": "Головне"
                },
                {
                    "name": "Грибовицька волость",
                    "name:ru": "Грибовицкая волость",
                    "center:ru": "Грибовица с.",
                    "name:en": "Hrybovytska volost",
                    "wikipedia": "uk:Грибовицька_волость",
                    "type": "volost",
                    "wikidata": "Q16549735",
                    "area:1885": "18543",
                    "population:1885": "6645",
                    "center:uk": "Грибовиця"
                },
                {
                    "name": "Гущанська волость",
                    "name:ru": "Гущанская волость",
                    "center:ru": "Гуща с.",
                    "name:en": "Hushchanska volost",
                    "wikipedia": "uk:Гущанська_волость",
                    "type": "volost",
                    "wikidata": "Q9270162",
                    "area:1885": "14865",
                    "population:1885": "6609",
                    "center:uk": "Гуща"
                },
                {
                    "name": "Згорянська волость",
                    "name:ru": "Згорянская волость",
                    "center:ru": "Згоряны с.",
                    "name:en": "Zghoryanska volost",
                    "wikipedia": "uk:Згорянська_волость",
                    "type": "volost",
                    "wikidata": "Q11700924",
                    "area:1885": "14524",
                    "population:1885": "6085",
                    "center:uk": "Згоряни"
                },
                {
                    "name": "Киселинська волость",
                    "name:ru": "Киселинская волость",
                    "center:ru": "Киселин м.",
                    "name:en": "Kyselynska volost",
                    "wikipedia": "uk:Киселинська_волость",
                    "type": "volost",
                    "wikidata": "Q9270447",
                    "area:1885": "25666",
                    "population:1885": "6143",
                    "center:uk": "Киселин"
                },
                {
                    "name": "Коритницька волость",
                    "name:ru": "Корытницкая волость",
                    "center:ru": "Корытница м.",
                    "name:en": "Korytnytska volost",
                    "wikipedia": "uk:Коритницька_волость",
                    "type": "volost",
                    "wikidata": "Q9270552",
                    "area:1885": "15715",
                    "population:1885": "3434",
                    "center:uk": "Коритниця"
                },
                {
                    "name": "Крименська волость",
                    "name:ru": "Крыменская волость",
                    "center:ru": "Крымно с.",
                    "name:en": "Krymenska volost",
                    "wikipedia": "uk:Крименська_волость",
                    "type": "volost",
                    "wikidata": "Q9270728",
                    "area:1885": "13248",
                    "population:1885": "8486",
                    "center:uk": "Кримне"
                },
                {
                    "name": "Любомльська волость",
                    "name:ru": "Любомльская волость",
                    "center:ru": "Любомль м.",
                    "name:en": "Lyubomlska volost",
                    "wikipedia": "uk:Любомльська_волость",
                    "type": "volost",
                    "wikidata": "Q9271028",
                    "area:1885": "12331",
                    "population:1885": "7078",
                    "center:uk": "Любомль"
                },
                {
                    "name": "Микулицька волость",
                    "name:ru": "Микуличская волость",
                    "center:ru": "Микуличи с.",
                    "name:en": "Mykulytska volost",
                    "wikipedia": "uk:Микулицька_волость",
                    "type": "volost",
                    "wikidata": "Q9271181",
                    "area:1885": "20735",
                    "population:1885": "5597",
                    "center:uk": "Микуличі"
                },
                {
                    "name": "Новодвірська волость",
                    "name:ru": "Новодворская волость",
                    "center:ru": "Новодвор с.",
                    "name:en": "Novodvirska volost",
                    "wikipedia": "uk:Новодвірська_волость",
                    "type": "volost",
                    "wikidata": "Q9271504",
                    "area:1885": "14191",
                    "population:1885": "5667",
                    "center:uk": "Новодвір"
                },
                {
                    "name": "Олеська волость",
                    "name:ru": "Олесская волость",
                    "center:ru": "Олесск с.",
                    "name:en": "Oleska volost",
                    "wikipedia": "uk:Олеська_волость",
                    "type": "volost",
                    "wikidata": "Q11700523",
                    "area:1885": "10691",
                    "population:1885": "3547",
                    "center:uk": "Олеськ"
                },
                {
                    "name": "Підберезська волость",
                    "name:ru": "Подберезская волость",
                    "center:ru": "Подберезье с.",
                    "name:en": "Pidberezska volost",
                    "wikipedia": "uk:Підберезська_волость",
                    "type": "volost",
                    "wikidata": "Q9271828",
                    "area:1885": "11285",
                    "population:1885": "4107",
                    "center:uk": "Підбереззя"
                },
                {
                    "name": "Порицька волость",
                    "name:ru": "Порицкая волость",
                    "center:ru": "Владиславовка х.",
                    "name:en": "Porytska volost",
                    "wikipedia": "uk:Порицька_волость",
                    "type": "volost",
                    "wikidata": "Q20091552",
                    "area:1885": "22253",
                    "population:1885": "7691",
                    "center:uk": "Порицьк"
                },
                {
                    "name": "Пульменська волость",
                    "name:ru": "Пульменская волость",
                    "center:ru": "Пульмо с.",
                    "name:en": "Pulmenska volost",
                    "wikipedia": "uk:Пульменська_волость",
                    "type": "volost",
                    "wikidata": "Q9272038",
                    "area:1885": "22981",
                    "population:1885": "7007",
                    "center:uk": "Пульмо"
                },
                {
                    "name": "Свинюська волость",
                    "name:ru": "Свинюхская волость",
                    "center:ru": "Свинюхи м.",
                    "name:en": "Svynyuska volost",
                    "wikipedia": "uk:Свинюська_волость",
                    "type": "volost",
                    "wikidata": "Q9273852",
                    "area:1885": "13300",
                    "population:1885": "4789",
                    "center:uk": "Свинюхи"
                },
                {
                    "name": "Скобелецька волость",
                    "name:ru": "Скобелецкая волость",
                    "center:ru": "Скобелка с.",
                    "name:en": "Skobeletska volost",
                    "wikipedia": "uk:Скобелецька_волость",
                    "type": "volost",
                    "wikidata": "Q9272438",
                    "area:1885": "14143",
                    "population:1885": "5024",
                    "center:uk": "Скобелка"
                },
                {
                    "name": "Хорівська волость",
                    "name:ru": "Хоровская волость",
                    "center:ru": "Хоров с.",
                    "name:en": "Khorivska volost",
                    "wikipedia": "uk:Хорівська_волость",
                    "type": "volost",
                    "wikidata": "Q9269437",
                    "area:1885": "22885",
                    "population:1885": "8946",
                    "center:uk": "Хорів"
                },
                {
                    "name": "Хотячівська волость",
                    "name:ru": "Хотячевская волость",
                    "center:ru": "Хотячев с.",
                    "name:en": "Khotyachivska volost",
                    "wikipedia": "uk:Хотячівська_волость",
                    "type": "volost",
                    "wikidata": "Q9269442",
                    "area:1885": "15108",
                    "population:1885": "5284",
                    "center:uk": "Хотячів"
                },
                {
                    "name": "Шацька волость",
                    "name:ru": "Шацкая волость",
                    "center:ru": "Шацк с.",
                    "name:en": "Shatska volost",
                    "wikipedia": "uk:Шацька_волость",
                    "type": "volost",
                    "wikidata": "Q9272749",
                    "area:1885": "18038",
                    "population:1885": "6284",
                    "center:uk": "Шацьк"
                }
            ]
        },
        {
            "name": "Дубенський повіт",
            "name:ru": "Дубенский уезд",
            "name:en": "Dubno uezd",
            "wikidata": "Q4026886",
            "wikipedia": "uk:Дубенський_повіт",
            "type": "povit",
            "volosti": [
                {
                    "name": "Берестецька волость",
                    "name:ru": "Берестечская волость",
                    "center:ru": "Берестечко м.",
                    "wikipedia": "uk:Берестецька_волость",
                    "wikidata": "Q9268979",
                    "center:uk": "Берестечко",
                    "area:1886": "21224",
                    "population:1886": "9646",
                    "type": "volost"
                },
                {
                    "name": "Боремельська волость",
                    "name:ru": "Боремельская волость",
                    "center:ru": "Боремель м.",
                    "wikipedia": "uk:Боремельська_волость",
                    "wikidata": "Q9269149",
                    "center:uk": "Боремель",
                    "area:1886": "15739",
                    "population:1886": "6838",
                    "type": "volost"
                },
                {
                    "name": "Будеразька волость",
                    "name:ru": "Будеражская волость",
                    "center:ru": "Будераж с.",
                    "wikipedia": "uk:Будеразька_волость",
                    "wikidata": "Q9269272",
                    "center:uk": "Будераж",
                    "area:1886": "20280",
                    "population:1886": "6268",
                    "type": "volost"
                },
                {
                    "name": "Варковицька волость",
                    "name:ru": "Варковичская волость",
                    "center:ru": "Варковичи м.",
                    "wikipedia": "uk:Варковицька_волость",
                    "wikidata": "Q9273104",
                    "center:uk": "Варковичі",
                    "area:1885": "18877",
                    "population:1885": "7268",
                    "type": "volost"
                },
                {
                    "name": "Вербівська волость",
                    "name:ru": "Вербовская волость",
                    "center:ru": "Верба м.",
                    "wikipedia": "uk:Вербівська_волость",
                    "wikidata": "Q9273155",
                    "center:uk": "Верба",
                    "area:1886": "23107",
                    "population:1886": "6101",
                    "type": "volost"
                },
                {
                    "name": "Дубенська волость",
                    "name:ru": "Дубенская волость",
                    "center:ru": "Дубно гор.",
                    "wikipedia": "uk:Дубенська_волость",
                    "wikidata": "Q18424859",
                    "center:uk": "Дубно",
                    "area:1886": "22538",
                    "population:1886": "7651",
                    "type": "volost"
                },
                {
                    "name": "Княгининська волость",
                    "name:ru": "Княгининская волость",
                    "center:ru": "Княгинин с.",
                    "wikipedia": "uk:Княгининська_волость",
                    "wikidata": "Q9270473",
                    "center:uk": "Княгинин",
                    "area:1886": "16187",
                    "population:1886": "6734",
                    "type": "volost"
                },
                {
                    "name": "Крупець волость",
                    "name:ru": "Крупецкая волость",
                    "center:ru": "Крупец м.",
                    "wikipedia": "uk:Крупецька_волость_(Дубенський_повіт)",
                    "wikidata": "Q9270725",
                    "center:uk": "Крупець",
                    "area:1886": "16382",
                    "population:1886": "5181",
                    "type": "volost"
                },
                {
                    "name": "Мізоцька волость",
                    "name:ru": "Малинская волость",
                    "center:ru": "Малин с.",
                    "wikipedia": "uk:Малинська_волость_(Дубенський_повіт)",
                    "wikidata": "Q9271086",
                    "center:uk": "Малин",
                    "area:1885": "19358",
                    "population:1885": "6844",
                    "type": "volost"
                },
                {
                    "name": "Мізоцька волость",
                    "name:ru": "Мизочская волость",
                    "center:ru": "Мизочь м.",
                    "wikipedia": "uk:Мізоцька_волость",
                    "wikidata": "Q28005328",
                    "center:uk": "Мізоч",
                    "area:1885": "14398",
                    "population:1885": "7057",
                    "type": "volost"
                },
                {
                    "name": "Млинівська волость",
                    "name:ru": "Млыновская волость",
                    "center:ru": "Млынов м.",
                    "wikipedia": "uk:Млинівська_волость",
                    "wikidata": "Q9271343",
                    "center:uk": "Млинів",
                    "area:1886": "23708",
                    "population:1886": "8462",
                    "type": "volost"
                },
                {
                    "name": "Покощівська волость",
                    "name:ru": "Олыкская волость",
                    "wikipedia": "uk:Покощівська_(Олицька)_волость",
                    "center:ru": "Олика д.",
                    "wikidata": "Q11700545",
                    "center:uk": "Олика",
                    "area:1886": "19081",
                    "population:1886": "9592",
                    "type": "volost"
                },
                {
                    "name": "Судобицька волость",
                    "name:ru": "Судобичская волость",
                    "center:ru": "Судобичи с.",
                    "wikipedia": "uk:Судобицька_волость",
                    "wikidata": "Q9272715",
                    "center:uk": "Судобичі",
                    "area:1885": "13596",
                    "population:1885": "3934",
                    "type": "volost"
                },
                {
                    "name": "Теслугівська волость",
                    "name:ru": "Теслуговская волость",
                    "center:ru": "Теслугов с.",
                    "wikipedia": "uk:Теслугівська_волость",
                    "wikidata": "Q9272902",
                    "center:uk": "Теслугів",
                    "area:1885": "21042",
                    "population:1885": "7086",
                    "type": "volost"
                },
                {
                    "name": "Ярославицька волость",
                    "name:ru": "Ярославичская волость",
                    "center:ru": "Ярославичи с.",
                    "wikipedia": "uk:Ярославицька_волость",
                    "wikidata": "Q11700261",
                    "center:uk": "Ярославичі",
                    "area:1886": "15530",
                    "population:1886": "6299",
                    "type": "volost"
                }
            ]
        },
        {
            "name": "Житомирський повіт",
            "name:ru": "Житомирский уезд",
            "name:en": "Zhytomyr uezd",
            "wikidata": "Q12104648",
            "wikipedia": "uk:Житомирський_повіт_(Волинська_губернія)",
            "type": "povit",
            "volosti": [
                {
                    "name": "Андрушівська волость",
                    "name:ru": "Андрушовская волость",
                    "center:ru": "Андрушовка м.",
                    "wikipedia": "uk:Андрушівська_волость_(Житомирський_повіт)",
                    "wikidata": "Q12078319",
                    "center:uk": "Андрушівка",
                    "area:1885": "22355",
                    "population:1885": "9056",
                    "type": "volost"
                },
                {
                    "name": "Барашівська волость",
                    "name:ru": "Барашевская волость",
                    "center:ru": "Бараши с.",
                    "wikipedia": "uk:Барашівська_волость",
                    "wikidata": "Q12080975",
                    "center:uk": "Бараші",
                    "area:1885": "54717",
                    "population:1885": "12661",
                    "type": "volost"
                },
                {
                    "name": "Бежівська волость",
                    "name:ru": "Бежевская волость",
                    "center:ru": "Киселевка д.",
                    "name:en": "Bezivska volost",
                    "wikipedia": "uk:Бежівська_волость",
                    "type": "volost",
                    "wikidata": "Q6583210",
                    "area:1885": "19798",
                    "population:1885": "7232",
                    "center:uk": "Бежів"
                },
                {
                    "name": "Горошківська волость",
                    "name:ru": "Горошковская волость",
                    "center:ru": "Горошки м.",
                    "wikipedia": "uk:Кутузівська_волость",
                    "wikidata": "Q20075871",
                    "center:uk": "Горошки",
                    "area:1885": "38478",
                    "population:1885": "11829",
                    "type": "volost"
                },
                {
                    "name": "Коднянська волость",
                    "name:ru": "Коднянская волость",
                    "center:ru": "Кодня м.",
                    "name:en": "Kodnyanska volost",
                    "wikipedia": "uk:Коднянська_волость",
                    "type": "volost",
                    "wikidata": "Q12111159",
                    "area:1885": "13564",
                    "population:1885": "6597",
                    "center:uk": "Кодня"
                },
                {
                    "name": "Котелянська волость",
                    "name:ru": "Котелянская волость",
                    "center:ru": "Котельня-старая м.",
                    "wikipedia": "uk:Котелянська_волость",
                    "wikidata": "Q12113734",
                    "center:uk": "Котельня",
                    "area:1885": "17647",
                    "population:1885": "5339",
                    "type": "volost"
                },
                {
                    "name": "Краснопільська волость",
                    "name:ru": "Краснопольская волость",
                    "center:ru": "Краснополь м.",
                    "wikipedia": "uk:Краснопільська_волость_(Полонський_повіт)",
                    "wikidata": "Q12114294",
                    "center:uk": "Краснопіль",
                    "area:1885": "21758",
                    "population:1885": "7804",
                    "type": "volost"
                },
                {
                    "name": "Красносільська волость",
                    "name:ru": "Красносельская волость",
                    "center:ru": "Красноселка с.",
                    "wikipedia": "uk:Красносільська_волость_(Полонський_повіт)",
                    "wikidata": "Q20078242",
                    "center:uk": "Красносілки",
                    "area:1885": "13390",
                    "population:1885": "6319",
                    "type": "volost"
                },
                {
                    "name": "Левківська волость",
                    "name:ru": "Левковская волость",
                    "center:ru": "Левков м.",
                    "name:en": "Levkivska volost",
                    "wikipedia": "uk:Левківська_волость",
                    "type": "volost",
                    "wikidata": "Q12117406",
                    "area:1885": "23239",
                    "population:1885": "6968",
                    "center:uk": "Левків"
                },
                {
                    "name": "Мотовилівська волость",
                    "name:ru": "Мотовиловская волость",
                    "center:ru": "Мотовиловка с.",
                    "wikipedia": "uk:Мотовилівська_волость_(Полонський_повіт)",
                    "wikidata": "Q12130298",
                    "center:uk": "Мотовилівка",
                    "area:1885": "14406",
                    "population:1885": "7894",
                    "type": "volost"
                },
                {
                    "name": "Озадівка волость",
                    "name:ru": "Озадовская волость",
                    "center:ru": "Озадовка с.",
                    "wikipedia": "uk:Озадівська_волость",
                    "wikidata": "Q20083219",
                    "center:uk": "Озадівка",
                    "area:1885": "22776",
                    "population:1885": "7223",
                    "type": "volost"
                },
                {
                    "name": "Пулинська волость",
                    "name:ru": "Пулинская волость",
                    "center:ru": "Пулины м.",
                    "name:en": "Pulynska volost",
                    "wikipedia": "uk:Пулинська_волость",
                    "type": "volost",
                    "wikidata": "Q12145552",
                    "area:1885": "46202",
                    "population:1885": "14870",
                    "center:uk": "Пулини"
                },
                {
                    "name": "П'ятківська волость",
                    "name:ru": "Пятковская волость",
                    "center:ru": "Пятка м.",
                    "wikipedia": "uk:П%27ятківська_волость_(Житомирський_повіт)",
                    "type": "volost",
                    "wikidata": "Q12137138",
                    "area:1885": "28512",
                    "population:1885": "9986",
                    "center:uk": "П'ятка"
                },
                {
                    "name": "Солотвинська волость",
                    "name:ru": "Солотвинская волость",
                    "center:ru": "Солотвин с.",
                    "name:en": "Solotvynska volost",
                    "wikipedia": "uk:Солотвинська_волость",
                    "type": "volost",
                    "wikidata": "Q12154477",
                    "area:1885": "22336",
                    "population:1885": "8630",
                    "center:uk": "Солотвин"
                },
                {
                    "name": "Троянівська волость",
                    "name:ru": "Трояновская волость",
                    "center:ru": "Троянов м.",
                    "name:en": "Troyanivska volost",
                    "wikipedia": "uk:Троянівська_волость_(Житомирський_повіт)",
                    "type": "volost",
                    "wikidata": "Q12162568",
                    "area:1885": "56960",
                    "population:1885": "11825",
                    "center:uk": "Троянів"
                },
                {
                    "name": "Ушомирська волость",
                    "name:ru": "Ушомирская волость",
                    "center:ru": "Ушомир м.",
                    "wikipedia": "uk:Ушомирська_волость",
                    "wikidata": "Q12165059",
                    "center:uk": "Ушомир",
                    "area:1885": "42641",
                    "population:1885": "8775",
                    "type": "volost"
                },
                {
                    "name": "Фасівська волость",
                    "name:ru": "Фасовская волость",
                    "center:ru": "Фасова д.",
                    "wikipedia": "uk:Фасівська_волость",
                    "wikidata": "Q12165301",
                    "center:uk": "Фасова",
                    "area:1885": "38653",
                    "population:1885": "9716",
                    "type": "volost"
                },
                {
                    "name": "Черняхівська волость",
                    "name:ru": "Черняховская волость",
                    "center:ru": "Черняхов м.",
                    "name:en": "Chernyakhivska volost",
                    "wikipedia": "uk:Черняхівська_волость_(Житомирський_повіт)",
                    "type": "volost",
                    "wikidata": "Q12170007",
                    "area:1885": "20900",
                    "population:1885": "8434",
                    "center:uk": "Черняхів"
                },
                {
                    "name": "Чуднівська волость",
                    "name:ru": "Чудновская волость",
                    "center:ru": "Чуднов-Старый м.",
                    "name:en": "Chudnivska volost",
                    "wikipedia": "uk:Чуднівська_волость",
                    "type": "volost",
                    "wikidata": "Q12170722",
                    "area:1885": "58615",
                    "population:1885": "15989",
                    "center:uk": "Чуднів"
                },
                {
                    "name": "Янушпільська волость",
                    "name:ru": "Янушпольская волость",
                    "center:ru": "Янушполь м.",
                    "wikipedia": "uk:Янушпільська_волость",
                    "wikidata": "Q12173802",
                    "center:uk": "Янушпіль",
                    "area:1885": "17281",
                    "population:1885": "5458",
                    "type": "volost"
                }
            ]
        },
        {
            "name": "Ізяславський повіт",
            "name:ru": "Заславский уезд",
            "name:en": "Zaslavsky uezd",
            "wikidata": "Q11825807",
            "wikipedia": "uk:Ізяславський_повіт",
            "type": "povit",
            "volosti": [
                {
                    "name": "Антонінська волость",
                    "name:ru": "Антонинская волость",
                    "center:ru": "Антонины с.",
                    "wikipedia": "uk:Антонінська_волость",
                    "wikidata": "Q20072773",
                    "center:uk": "Антоніни",
                    "area:1886": "10672",
                    "population:1886": "6863",
                    "type": "volost"
                },
                {
                    "name": "Білогородська волость",
                    "name:ru": "Белогородская волость",
                    "center:ru": "Белогородка м.",
                    "wikipedia": "uk:Білогородська_волость_(Ізяславський_повіт)",
                    "wikidata": "Q20074208",
                    "center:uk": "Білогородка",
                    "area:1886": "13007",
                    "population:1886": "6960",
                    "type": "volost"
                },
                {
                    "name": "Бутовецька волость",
                    "name:ru": "Бутовецкая волость",
                    "center:ru": "Бутовцы с.",
                    "wikipedia": "uk:Бутовецька_волость",
                    "wikidata": "Q20074184",
                    "center:uk": "Бутівці",
                    "area:1886": "6013",
                    "population:1886": "3625",
                    "type": "volost"
                },
                {
                    "name": "Грицівська волость",
                    "name:ru": "Грицевская волость",
                    "center:ru": "Грицев м.",
                    "wikipedia": "uk:Грицівська_волость",
                    "wikidata": "Q20075948",
                    "center:uk": "Гриців",
                    "area:1886": "10972",
                    "population:1886": "5388",
                    "type": "volost"
                },
                {
                    "name": "Жуківська волость",
                    "name:ru": "Жуковская волость",
                    "center:ru": "Жуков с.",
                    "wikipedia": "uk:Жуківська_волость",
                    "wikidata": "Q20076847",
                    "center:uk": "Жуків",
                    "area:1886": "15722",
                    "population:1886": "6870",
                    "type": "volost"
                },
                {
                    "name": "Ізяславська волость",
                    "name:ru": "Заславская волость",
                    "center:ru": "Заслав г.",
                    "wikipedia": "uk:Ізяславська_волость",
                    "wikidata": "Q20073431",
                    "center:uk": "Ізяслав",
                    "area:1886": "23916",
                    "population:1886": "8973",
                    "type": "volost"
                },
                {
                    "name": "Лабунська волость",
                    "name:ru": "Лабунская волость",
                    "center:ru": "Лабунь м.",
                    "wikipedia": "uk:Лабунська_волость",
                    "wikidata": "Q20081505",
                    "center:uk": "Лабунь",
                    "area:1886": "13615",
                    "population:1886": "5013",
                    "type": "volost"
                },
                {
                    "name": "Михнівська волость",
                    "name:ru": "Михновская волость",
                    "center:ru": "Михнов с.",
                    "wikipedia": "uk:Михнівська_волость",
                    "wikidata": "Q20082325",
                    "center:uk": "Михнів",
                    "area:1886": "10069",
                    "population:1886": "5707",
                    "type": "volost"
                },
                {
                    "name": "Новосільська волость",
                    "name:ru": "Новосельская волость",
                    "center:ru": "Новое-Село с.",
                    "wikipedia": "uk:Новосільська_волость",
                    "wikidata": "Q20083073",
                    "center:uk": "Нове Село",
                    "area:1886": "11302",
                    "population:1886": "6308",
                    "type": "volost"
                },
                {
                    "name": "Славутська волость",
                    "name:ru": "Славутская волость",
                    "center:ru": "Славута м.",
                    "wikipedia": "uk:Славутська_волость",
                    "wikidata": "Q20093081",
                    "center:uk": "Славута",
                    "area:1886": "13201",
                    "population:1886": "4516",
                    "type": "volost"
                },
                {
                    "name": "Судилківська волость",
                    "name:ru": "Судилковская волость",
                    "center:ru": "Судилков м.",
                    "wikipedia": "uk:Судилківська_волость",
                    "wikidata": "Q20093705",
                    "center:uk": "Судилків",
                    "area:1886": "14837",
                    "population:1886": "4807",
                    "type": "volost"
                },
                {
                    "name": "Сульжинська волость",
                    "name:ru": "Сульжинская волость",
                    "center:ru": "Сульжин с.",
                    "wikipedia": "uk:Сульжинська_волость",
                    "wikidata": "Q20093717",
                    "center:uk": "Сульжин",
                    "area:1886": "11271",
                    "population:1886": "5195",
                    "type": "volost"
                },
                {
                    "name": "Тернавська волость",
                    "name:ru": "Тернавская волость",
                    "center:ru": "Тернавка с.",
                    "wikipedia": "uk:Тернавська_волость_(Ізяславський_повіт)",
                    "wikidata": "Q20093971",
                    "center:uk": "Тернавка",
                    "area:1886": "8338",
                    "population:1886": "4737",
                    "type": "volost"
                },
                {
                    "name": "Хоровецька волость",
                    "name:ru": "Хоровецкая волость",
                    "center:ru": "Хоровец с.",
                    "wikipedia": "uk:Хоровецька_волость",
                    "wikidata": "Q20096533",
                    "center:uk": "Хоровець",
                    "area:1886": "12280",
                    "population:1886": "4279",
                    "type": "volost"
                },
                {
                    "name": "Хролинська волость",
                    "name:ru": "Хролинская волость",
                    "center:ru": "Хролин с.",
                    "name:en": "Khrolynska volost",
                    "wikipedia": "uk:Хролинська_волость",
                    "type": "volost",
                    "wikidata": "Q20096556",
                    "area:1886": "23561",
                    "population:1886": "6749",
                    "center:uk": "Хролин"
                },
                {
                    "name": "Шепетівська волость",
                    "name:ru": "Шепетовская волость",
                    "center:ru": "Шепетовка м.",
                    "wikipedia": "uk:Шепетівська_волость",
                    "wikidata": "Q20096704",
                    "center:uk": "Шепетівка",
                    "area:1886": "12029",
                    "population:1886": "4952",
                    "type": "volost"
                }
            ]
        },
        {
            "name": "Ковельський повіт",
            "name:ru": "Ковельский уезд",
            "name:en": "Kovel uezd",
            "wikidata": "Q867013",
            "wikipedia": "uk:Ковельський_повіт_(Російська_імперія)",
            "type": "povit",
            "volosti": [
                {
                    "name": "Боровенська волость",
                    "name:ru": "Боровенская волость",
                    "center:ru": "Боровно с.",
                    "name:en": "Borovenska volost",
                    "wikipedia": "uk:Боровенська_волость_(Ковельський_повіт)",
                    "type": "volost",
                    "wikidata": "Q9269168",
                    "area:1885": "27135",
                    "population:1885": "6081",
                    "center:uk": "Боровне"
                },
                {
                    "name": "Великоглушанська волость",
                    "name:ru": "Велико-Глушская волость",
                    "center:ru": "Великая-Глуша с.",
                    "wikipedia": "uk:Великоглушанська_волость",
                    "wikidata": "Q9273193",
                    "center:uk": "Велика Глуша",
                    "area:1885": "38223",
                    "population:1885": "5945",
                    "type": "volost"
                },
                {
                    "name": "Велицька волость",
                    "name:ru": "Велицкая волость",
                    "center:ru": "Велицк с.",
                    "name:en": "Velytska volost",
                    "wikipedia": "uk:Велицька_волость",
                    "type": "volost",
                    "wikidata": "Q9273194",
                    "area:1885": "18805",
                    "population:1885": "5162",
                    "center:uk": "Велицьк"
                },
                {
                    "name": "Голобська волость",
                    "name:ru": "Голобская волость",
                    "center:ru": "Голобы с.",
                    "wikipedia": "uk:Голобська_волость",
                    "wikidata": "Q9270133",
                    "center:uk": "Голоби",
                    "area:1885": "22027",
                    "population:1885": "5821",
                    "type": "volost"
                },
                {
                    "name": "Гірниківська волость",
                    "name:ru": "Горникская волость",
                    "center:ru": "Горники с.",
                    "wikipedia": "uk:Гірниківська_волость",
                    "wikidata": "Q9270059",
                    "center:uk": "Гірники",
                    "area:1885": "29821",
                    "population:1885": "6746",
                    "type": "volost"
                },
                {
                    "name": "Датинська волость",
                    "name:ru": "Датынская волость",
                    "center:ru": "Датынь с.",
                    "wikipedia": "uk:Велимецька_(Датинська)_волость",
                    "center:uk": "Датинь",
                    "area:1885": "12192",
                    "population:1885": "5657",
                    "wikidata": "Q9269605",
                    "type": "volost"
                },
                {
                    "name": "Заболоттівська волость",
                    "name:ru": "Заболотская волость",
                    "center:ru": "Заболотье с.",
                    "wikipedia": "uk:Заболоттівська_волость",
                    "wikidata": "Q12105045",
                    "center:uk": "Заболоття",
                    "area:1885": "24756",
                    "population:1885": "5330",
                    "type": "volost"
                },
                {
                    "name": "Камінь-Каширська волость",
                    "name:ru": "Камено-Коширская волость",
                    "center:ru": "Кам.-Коширск м.",
                    "wikipedia": "uk:Камінь-Каширська_волость",
                    "wikidata": "Q9270388",
                    "center:uk": "Кам'яний Коширськ",
                    "area:1885": "27415",
                    "population:1885": "6861",
                    "type": "volost"
                },
                {
                    "name": "Леликівська волость",
                    "name:ru": "Леликовская волость",
                    "center:ru": "Леликов с.",
                    "wikipedia": "uk:Леликівська_волость",
                    "wikidata": "Q9270914",
                    "center:uk": "Леликове",
                    "area:1885": "26938",
                    "population:1885": "5738",
                    "type": "volost"
                },
                {
                    "name": "Любитівська волость",
                    "name:ru": "Любитовская волость",
                    "center:ru": "Любитов с.",
                    "name:en": "Lyubytivska volost",
                    "wikipedia": "uk:Любитівська_волость",
                    "type": "volost",
                    "wikidata": "Q20081736",
                    "area:1885": "12520",
                    "population:1885": "3086",
                    "center:uk": "Любитів"
                },
                {
                    "name": "Мацеївська волость",
                    "name:ru": "Мациовская волость",
                    "center:ru": "Мациов м.",
                    "wikipedia": "uk:Мацеївська_волость",
                    "wikidata": "Q9271065",
                    "center:uk": "Маціїв",
                    "area:1885": "18956",
                    "population:1885": "8425",
                    "type": "volost"
                },
                {
                    "name": "Несухоїзька волость",
                    "name:ru": "Несухоижская волость",
                    "center:ru": "Заречье с.",
                    "wikipedia": "uk:Несухоїзька_волость",
                    "wikidata": "Q9271415",
                    "center:uk": "Несухоїжі",
                    "area:1885": "11682",
                    "population:1885": "5255",
                    "type": "volost"
                },
                {
                    "name": "Повурська волость",
                    "name:ru": "Повурская волость",
                    "center:ru": "Повурск с.",
                    "wikipedia": "uk:Повурська_волость",
                    "wikidata": "Q9271944",
                    "center:uk": "Повурськ",
                    "area:1885": "21405",
                    "population:1885": "5026",
                    "type": "volost"
                },
                {
                    "name": "Седлиська волость",
                    "name:ru": "Седлищская волость",
                    "center:ru": "Седлищи с.",
                    "wikipedia": "uk:Седлищенська_волость",
                    "wikidata": "Q9272378",
                    "center:uk": "Седлище",
                    "area:1885": "20617",
                    "population:1885": "8630",
                    "type": "volost"
                },
                {
                    "name": "Сошичненська волость",
                    "name:ru": "Сошичанская волость",
                    "center:ru": "Сошично с.",
                    "wikipedia": "uk:Сошичненська_волость",
                    "wikidata": "Q9272539",
                    "center:uk": "Сошичне",
                    "area:1885": "28765",
                    "population:1885": "6382",
                    "type": "volost"
                },
                {
                    "name": "Старокошарська волость",
                    "name:ru": "Старо-Кошарская волость",
                    "center:ru": "Старые-Кошары с.",
                    "wikipedia": "uk:Старокошарська_волость",
                    "wikidata": "Q9272583",
                    "center:uk": "Старі Кошари",
                    "area:1885": "18894",
                    "population:1885": "6046",
                    "type": "volost"
                },
                {
                    "name": "Турійська волость",
                    "name:ru": "Турийская волость",
                    "center:ru": "Турийск м.",
                    "wikipedia": "uk:Турійська_волость",
                    "wikidata": "Q9273008",
                    "center:uk": "Турійськ",
                    "area:1885": "22662",
                    "population:1885": "5373",
                    "type": "volost"
                },
                {
                    "name": "Хотешівська волость",
                    "name:ru": "Хотешовская волость",
                    "center:ru": "Хотешов с.",
                    "name:en": "Khoteshivska volost",
                    "wikipedia": "uk:Хотешівська_волость",
                    "type": "volost",
                    "wikidata": "Q9269400",
                    "area:1885": "34509",
                    "population:1885": "8123",
                    "center:uk": "Хотешів"
                }
            ]
        },
        {
            "name": "Кременецький повіт",
            "name:ru": "Кременецкий уезд",
            "name:en": "Kremenets uezd",
            "wikidata": "Q25446997",
            "wikipedia": "uk:Кременецький_повіт_(Російська_імперія)",
            "type": "povit",
            "volosti": [
                {
                    "name": "Білозорецька волость",
                    "name:ru": "Белозерская волость",
                    "center:ru": "Белозорка м.",
                    "wikipedia": "uk:Білозорецька_волость",
                    "wikidata": "Q9269035",
                    "center:uk": "Білозірка",
                    "area:1885": "11213",
                    "population:1885": "5301",
                    "type": "volost"
                },
                {
                    "name": "Білокриницька волость",
                    "name:ru": "Белокриницкая волость",
                    "center:ru": "Белокриница с.",
                    "wikipedia": "uk:Білокриницька_волость",
                    "wikidata": "Q62979843",
                    "center:uk": "Білокриниця",
                    "area:1885": "21722",
                    "population:1885": "6914",
                    "type": "volost"
                },
                {
                    "name": "Бережецька волость",
                    "name:ru": "Бережецкая волость",
                    "center:ru": "Бережцы м.",
                    "name:en": "Berezhetska volost",
                    "wikipedia": "uk:Бережецька_волость_(Кременецький_повіт)",
                    "type": "volost",
                    "wikidata": "Q20073077",
                    "area:1885": "17427",
                    "population:1885": "6423",
                    "center:uk": "Бережці"
                },
                {
                    "name": "Борецька волость",
                    "name:ru": "Борецкая волость",
                    "center:ru": "Борки с.",
                    "wikipedia": "uk:Борецька_волость",
                    "wikidata": "Q9269155",
                    "center:uk": "Бірки",
                    "area:1885": "12731",
                    "population:1885": "5960",
                    "type": "volost"
                },
                {
                    "name": "Борсуківська волость",
                    "name:ru": "Борсуковская волость",
                    "center:ru": "Борсуки с.",
                    "wikipedia": "uk:Борсуківська_волость",
                    "wikidata": "Q9269170",
                    "center:uk": "Борсуки",
                    "area:1885": "14802",
                    "population:1885": "7293",
                    "type": "volost"
                },
                {
                    "name": "Вербовецька волость",
                    "name:ru": "Вербовецкая волость",
                    "center:ru": "Вербовец с.",
                    "name:en": "Verbovetska volost",
                    "wikipedia": "uk:Вербовецька_волость_(Кременецький_повіт)",
                    "type": "volost",
                    "wikidata": "Q9273236",
                    "area:1885": "11382",
                    "population:1885": "7908",
                    "center:uk": "Вербовець"
                },
                {
                    "name": "Вишневецька волость",
                    "name:ru": "Вишневецкая волость",
                    "center:ru": "Вишневец-Новый м.",
                    "wikipedia": "uk:Вишневецька_волость",
                    "wikidata": "Q9273308",
                    "center:uk": "Вишнівець",
                    "area:1885": "16983",
                    "population:1885": "9203",
                    "type": "volost"
                },
                {
                    "name": "Вишгородська волость",
                    "name:ru": "Вышгородская волость",
                    "center:ru": "Вышгородок м.",
                    "wikipedia": "uk:Вишгородська_волость",
                    "wikidata": "Q9273456",
                    "center:uk": "Вишгородок",
                    "area:1885": "13121",
                    "population:1885": "8121",
                    "type": "volost"
                },
                {
                    "name": "Дедеркальська волость",
                    "name:ru": "Дедеркальская волость",
                    "center:ru": "Дедеркалы-Бельшие с.",
                    "name:en": "Dederkalska volost",
                    "wikipedia": "uk:Дедеркальська_волость",
                    "type": "volost",
                    "wikidata": "Q9269618",
                    "area:1885": "14926",
                    "population:1885": "6653",
                    "center:uk": "Великі Дедеркали"
                },
                {
                    "name": "Зарудненська волость",
                    "name:ru": "Заруденская волость",
                    "center:ru": "Зарудье с.",
                    "wikipedia": "uk:Зарудненська_волость",
                    "wikidata": "Q11700911",
                    "center:uk": "Заруддя",
                    "area:1885": "12080",
                    "population:1885": "6657",
                    "type": "volost"
                },
                {
                    "name": "Почаївська волость",
                    "name:ru": "Почаевская волость",
                    "center:ru": "Почаев-Новый м.",
                    "wikipedia": "uk:Почаївська_волость",
                    "wikidata": "Q9271815",
                    "center:uk": "Почаїв",
                    "area:1885": "10995",
                    "population:1885": "6119",
                    "type": "volost"
                },
                {
                    "name": "Радзивилівська волость",
                    "name:ru": "Радзивиловская волость",
                    "center:ru": "Радзивилов м.",
                    "wikipedia": "uk:Радзивилівська_волость",
                    "wikidata": "Q11700627",
                    "center:uk": "Радзивилів",
                    "area:1885": "14398",
                    "population:1885": "8642",
                    "type": "volost"
                },
                {
                    "name": "Святецька волость",
                    "name:ru": "Святецкая волость",
                    "center:ru": "Святец с.",
                    "wikipedia": "uk:Святецька_волость",
                    "wikidata": "Q12151013",
                    "center:uk": "Святець",
                    "area:1885": "11877",
                    "population:1885": "6074",
                    "type": "volost"
                },
                {
                    "name": "Староолексинецька волость",
                    "name:ru": "Старо-Олексинецкая волость",
                    "center:ru": "Олексинец-Старый д.",
                    "wikipedia": "uk:Старо-Олексинецька_волость",
                    "wikidata": "Q9272606",
                    "center:uk": "Старий Олексинець",
                    "area:1885": "10253",
                    "population:1885": "5706",
                    "type": "volost"
                },
                {
                    "name": "Шумська волость",
                    "name:ru": "Шумская волость",
                    "center:ru": "Шумск м.",
                    "wikipedia": "uk:Шумська_волость",
                    "wikidata": "Q9272805",
                    "center:uk": "Шумськ",
                    "area:1885": "16316",
                    "population:1885": "7999",
                    "type": "volost"
                },
                {
                    "name": "Ямпільська волость",
                    "name:ru": "Ямпольская волость",
                    "center:ru": "Ямполь М.",
                    "wikipedia": "uk:Ямпільська_волость_(Кременецький_повіт)",
                    "wikidata": "Q12173660",
                    "center:uk": "Ямпіль",
                    "area:1885": "10397",
                    "population:1885": "5696",
                    "type": "volost"
                }
            ]
        },
        {
            "name": "Луцький повіт",
            "name:ru": "Луцкий уезд",
            "name:en": "Lutsk uezd",
            "wikidata": "Q11825818",
            "wikipedia": "uk:Луцький_повіт",
            "type": "povit",
            "volosti": [
                {
                    "name": "Більськовільська волость",
                    "name:ru": "Бельсковская волость",
                    "center:ru": "Бельсковоля с.",
                    "wikipedia": "uk:Більськовільська_волость",
                    "wikidata": "Q9269055",
                    "center:uk": "Більська Воля",
                    "area:1885": "40159",
                    "population:1885": "4896",
                    "type": "volost"
                },
                {
                    "name": "Бережницька волость",
                    "name:ru": "Бережницкая волость",
                    "center:ru": "Бережница м.",
                    "wikipedia": "uk:Бережницька_волость",
                    "wikidata": "Q9268993",
                    "center:uk": "Бережниця",
                    "area:1885": "15557",
                    "population:1885": "6504",
                    "type": "volost"
                },
                {
                    "name": "Володимирецька волость",
                    "name:ru": "Владимирецкая волость",
                    "center:ru": "Владимирец м.",
                    "wikipedia": "uk:Володимирецька_волость",
                    "wikidata": "Q9273495",
                    "center:uk": "Володимирець",
                    "area:1885": "24764",
                    "population:1885": "6856",
                    "type": "volost"
                },
                {
                    "name": "Городецьська волость",
                    "name:ru": "Городецкая волость",
                    "center:ru": "Городец с.",
                    "wikipedia": "uk:Городецька_волость_(Луцький_повіт)",
                    "wikidata": "Q9270120",
                    "center:uk": "Городець",
                    "area:1885": "25665",
                    "population:1885": "5419",
                    "type": "volost"
                },
                {
                    "name": "Городківська волость",
                    "name:ru": "Городковская волость",
                    "center:ru": "Городок м.",
                    "wikipedia": "uk:Городківська_волость",
                    "wikidata": "Q30957291",
                    "center:uk": "Городок",
                    "area:1885": "43397",
                    "population:1885": "6904",
                    "type": "volost"
                },
                {
                    "name": "Колківська волость",
                    "name:ru": "Колковская волость",
                    "center:ru": "Колки м.",
                    "name:en": "Kolkivska volost",
                    "wikipedia": "uk:Колківська_волость_(Луцький_повіт)",
                    "type": "volost",
                    "wikidata": "Q9270641",
                    "area:1885": "30949",
                    "population:1885": "10229",
                    "center:uk": "Колки"
                },
                {
                    "name": "Ведмезька волость",
                    "name:ru": "Медвежская волость",
                    "center:ru": "Медвежье с.",
                    "wikipedia": "uk:Ведмезька_волость",
                    "wikidata": "Q11700431",
                    "center:uk": "Ведмеже",
                    "area:1885": "24319",
                    "population:1885": "6913",
                    "type": "volost"
                },
                {
                    "name": "Піддубецька волость",
                    "name:ru": "Поддубецкая волость",
                    "center:ru": "Поддубцы с.",
                    "wikipedia": "uk:Піддубецька_волость",
                    "wikidata": "Q11700577",
                    "center:uk": "Піддубці",
                    "area:1906": "23000",
                    "population:1906": "17198",
                    "type": "volost"
                },
                {
                    "name": "Полонківська волость",
                    "name:ru": "Полонковская волость",
                    "center:ru": "Полонка с.",
                    "wikipedia": "uk:Лаврівська_(Полонська)_волость",
                    "type": "volost",
                    "wikidata": "Q9271951",
                    "area:1885": "21341",
                    "population:1885": "6707",
                    "center:uk": "Полонка"
                },
                {
                    "name": "Рафалівська волость",
                    "name:ru": "Рафаловская волость",
                    "center:ru": "Рафаловка м.",
                    "wikipedia": "uk:Рафалівська_волость",
                    "type": "volost",
                    "wikidata": "Q9272122",
                    "area:1885": "20292",
                    "population:1885": "7989",
                    "center:uk": "Рафалівка"
                },
                {
                    "name": "Рожиська волость",
                    "name:ru": "Рожищская волость",
                    "center:ru": "Рожище м.",
                    "wikipedia": "uk:Рожиська_волость",
                    "wikidata": "Q9272217",
                    "center:uk": "Рожище",
                    "area:1885": "31232",
                    "population:1885": "12004",
                    "type": "volost"
                },
                {
                    "name": "Силенська волость",
                    "name:ru": "Силенская волость",
                    "center:ru": "Сильно с.",
                    "wikipedia": "uk:Цуманська_(Силенська)_волость",
                    "wikidata": "Q11700695",
                    "center:uk": "Сильне",
                    "area:1885": "29354",
                    "population:1885": "3369",
                    "type": "volost"
                },
                {
                    "name": "Торчинська волость",
                    "name:ru": "Торчинская волость",
                    "center:ru": "Торчин м.",
                    "name:en": "Torchynska volost",
                    "wikipedia": "uk:Торчинська_волость",
                    "type": "volost",
                    "wikidata": "Q11700788",
                    "area:1885": "23435",
                    "population:1885": "11951",
                    "center:uk": "Торчин"
                },
                {
                    "name": "Тростянецька волость",
                    "name:ru": "Тростенецкая волость",
                    "center:ru": "Тростенец с.",
                    "wikipedia": "uk:Тростянецька_волость_(Луцький_повіт)",
                    "wikidata": "Q9272942",
                    "center:uk": "Тростянець",
                    "area:1885": "14338",
                    "population:1885": "3872",
                    "type": "volost"
                },
                {
                    "name": "Чаруківська волость",
                    "name:ru": "Чаруковская волость",
                    "center:ru": "Чаруков с.",
                    "name:en": "Charukivska volost",
                    "wikipedia": "uk:Чаруківська_волость",
                    "type": "volost",
                    "wikidata": "Q11700103",
                    "area:1885": "23361",
                    "population:1885": "7407",
                    "center:uk": "Чаруків"
                },
                {
                    "name": "Щуринська волость",
                    "name:ru": "Щуринская волость",
                    "center:ru": "Щурин с.",
                    "wikipedia": "uk:Щуринська_волость",
                    "wikidata": "Q9272775",
                    "center:uk": "Щурин",
                    "area:1885": "24055",
                    "population:1885": "7221",
                    "type": "volost"
                }
            ]
        },
        {
            "name": "Новоград-Волинський повіт",
            "name:ru": "Новоград-Волынский уезд",
            "name:en": "Novograd-Volynsky uezd",
            "wikidata": "Q11825813",
            "wikipedia": "uk:Новоград-Волинський_повіт",
            "type": "povit",
            "volosti": [
                {
                    "name": "Баранівська волость",
                    "name:ru": "Барановская волость",
                    "center:ru": "Барановка м.",
                    "wikipedia": "uk:Баранівська_волость_(Новоград-Волинський_повіт)",
                    "wikidata": "Q28707708",
                    "center:uk": "Баранівка",
                    "area:1885": "22057",
                    "population:1885": "8809",
                    "type": "volost"
                },
                {
                    "name": "Берездівська волость",
                    "name:ru": "Берездовская волость",
                    "center:ru": "Берездов м.",
                    "wikipedia": "uk:Берездівська_волость",
                    "wikidata": "Q25436835",
                    "center:uk": "Берездів",
                    "area:1885": "19627",
                    "population:1885": "11303",
                    "type": "volost"
                },
                {
                    "name": "Городницька волость",
                    "name:ru": "Городницкая волость",
                    "center:ru": "Городница м.",
                    "wikipedia": "uk:Городницька_волость",
                    "wikidata": "Q28705760",
                    "center:uk": "Городниця",
                    "area:1885": "25819",
                    "population:1885": "6958",
                    "type": "volost"
                },
                {
                    "name": "Деревицька волость",
                    "name:ru": "Деревичская волость",
                    "center:ru": "Деревичи с.",
                    "wikipedia": "uk:Деревицька_волость",
                    "wikidata": "Q28705772",
                    "center:uk": "Деревичі",
                    "area:1885": "11788",
                    "population:1885": "4788",
                    "type": "volost"
                },
                {
                    "name": "Жолобенська волость",
                    "name:ru": "Жолобенская волость",
                    "center:ru": "Жолобное с. ",
                    "wikipedia": "uk:Жолобенська_волость",
                    "wikidata": "Q25436819",
                    "center:uk": "Жолобне",
                    "area:1885": "11 206",
                    "population:1885": "8724",
                    "type": "volost"
                },
                {
                    "name": "Корецька волость",
                    "name:ru": "Корецкая волость",
                    "center:ru": "Корец-Старый. м.",
                    "name:en": "Koretska volost",
                    "wikipedia": "uk:Корецька_волость",
                    "type": "volost",
                    "wikidata": "Q9270553",
                    "area:1885": "17194",
                    "population:1885": "12933",
                    "center:uk": "Корець"
                },
                {
                    "name": "Курненська волость",
                    "name:ru": "Курненская волость",
                    "center:ru": "Курное с.",
                    "wikipedia": "uk:Курненська_волость",
                    "wikidata": "Q28705764",
                    "center:uk": "Курне",
                    "area:1885": "27099",
                    "population:1885": "6600",
                    "type": "volost"
                },
                {
                    "name": "Кустовецька волость",
                    "name:ru": "Кустовецкая волость",
                    "center:ru": "Кустовцы с.",
                    "wikipedia": "uk:Кустовецька_волость",
                    "wikidata": "Q28705776",
                    "center:uk": "Кустівці",
                    "area:1885": "10471",
                    "population:1885": "5387",
                    "type": "volost"
                },
                {
                    "name": "Любарська волость",
                    "name:ru": "Любарская волость",
                    "center:ru": "Любарь м.",
                    "wikipedia": "uk:Любарська_волость",
                    "wikidata": "Q20081726",
                    "center:uk": "Любар",
                    "area:1885": "13065",
                    "population:1885": "9299",
                    "type": "volost"
                },
                {
                    "name": "Миропільська волость",
                    "name:ru": "Миропольская волость",
                    "center:ru": "Ново-Мирополь. м.",
                    "wikipedia": "uk:Миропільська_волость_(Полонський_повіт)",
                    "wikidata": "Q28707733",
                    "center:uk": "Миропіль",
                    "area:1885": "19062",
                    "population:1885": "9197",
                    "type": "volost"
                },
                {
                    "name": "Новочарторийська волость",
                    "name:ru": "Ново-Чарторийская волость",
                    "center:ru": "Ново-Чартория м.",
                    "wikipedia": "uk:Новочарторийська_волость",
                    "wikidata": "Q28705778",
                    "center:uk": "Нова Чортория",
                    "area:1885": "8208",
                    "population:1885": "4859",
                    "type": "volost"
                },
                {
                    "name": "Остропільська волость",
                    "name:ru": "Остропольская волость",
                    "center:ru": "Острополь м.",
                    "wikipedia": "uk:Остропільська_волость",
                    "wikidata": "Q28705781",
                    "center:uk": "Старий Остропіль",
                    "area:1885": "8208",
                    "population:1885": "4859",
                    "type": "volost"
                },
                {
                    "name": "Піщівська  волость",
                    "name:ru": "Пищевская волость",
                    "center:ru": "Пищев с.",
                    "wikipedia": "uk:Піщівська_волость",
                    "wikidata": "Q28705785",
                    "center:uk": "Піщів",
                    "area:1885": "16240",
                    "population:1885": "7820",
                    "type": "volost"
                },
                {
                    "name": "Полонська волость",
                    "name:ru": "Полонская волость",
                    "center:ru": "Полонное м.",
                    "wikipedia": "uk:Полонська_волость",
                    "wikidata": "Q12141839",
                    "center:uk": "Полонне",
                    "area:1885": "22253",
                    "population:1885": "12618",
                    "type": "volost"
                },
                {
                    "name": "Рогачівська волость",
                    "name:ru": "Рогачевская волость",
                    "center:ru": "Рогачев м.",
                    "wikipedia": "uk:Рогачівська_волость",
                    "wikidata": "Q28707720",
                    "center:uk": "Гульськ",
                    "area:1885": "9084",
                    "population:1885": "5756",
                    "type": "volost"
                },
                {
                    "name": "Романівецька волость",
                    "name:ru": "Романовецкая волость",
                    "center:ru": "Романовка с.",
                    "wikipedia": "uk:Романівецька_волость",
                    "wikidata": "Q20092500",
                    "center:uk": "Романівка",
                    "area:1885": "28010",
                    "population:1885": "12136",
                    "type": "volost"
                },
                {
                    "name": "Романівська волость",
                    "name:ru": "Романовская волость",
                    "center:ru": "Романов м.",
                    "wikipedia": "uk:Романівська_волость_(Полонський_повіт)",
                    "wikidata": "Q12148723",
                    "center:uk": "Романів",
                    "area:1885": "19109",
                    "population:1885": "6151",
                    "type": "volost"
                },
                {
                    "name": "Сербівська волость",
                    "name:ru": "Сербовская волость",
                    "center:ru": "Сербы с.",
                    "wikipedia": "uk:Сербівська_волость",
                    "wikidata": "Q28703974",
                    "center:uk": "Серби",
                    "area:1885": "24 511",
                    "population:1885": "8 401",
                    "type": "volost"
                },
                {
                    "name": "Смолдирівська  волость",
                    "name:ru": "Смолдыревская волость",
                    "center:ru": "Смолдырев с.",
                    "wikipedia": "uk:Смолдирівська_волость",
                    "wikidata": "Q28705799",
                    "center:uk": "Суємці",
                    "area:1885": "27351",
                    "population:1885": "7988",
                    "type": "volost"
                },
                {
                    "name": "Емільчинська волость",
                    "name:ru": "Эмильчинская волость",
                    "center:ru": "Эмильчин с.",
                    "wikipedia": "uk:Емільчинська_волость",
                    "wikidata": "Q25440212",
                    "center:uk": "Емільчин",
                    "area:1885": "34 660",
                    "population:1885": "11 253",
                    "type": "volost"
                }
            ]
        },
        {
            "name": "Овруцький повіт",
            "name:ru": "Овручский уезд",
            "name:en": "Ovruchsky uezd",
            "wikidata": "Q11825692",
            "wikipedia": "uk:Овруцький_повіт",
            "type": "povit",
            "volosti": [
                {
                    "name": "Базарська волость",
                    "name:ru": "Базарская волость",
                    "center:ru": "Базар м.",
                    "wikipedia": "uk:Базарська_волость",
                    "wikidata": "Q12080292",
                    "center:uk": "Базар",
                    "area:1885": "47314",
                    "population:1885": "9763",
                    "type": "volost"
                },
                {
                    "name:ru": "Белокуровичская волость",
                    "center:ru": "Белокуровичи с.",
                    "wikipedia": "uk:Білокуровицька_волость",
                    "wikidata": "Q20076844",
                    "center:uk": "Білокуровичі",
                    "area:1885": "96828",
                    "population:1885": "4139",
                    "type": "volost"
                },
                {
                    "name": "Велико-Фосенська волость",
                    "name:ru": "Велико-Фосенская волость",
                    "center:ru": "Великая-Фосня с.",
                    "wikipedia": "uk:Велико-Фосенська_волость",
                    "wikidata": "Q12088370",
                    "center:uk": "Велика Фосня",
                    "area:1885": "18690",
                    "population:1885": "7109",
                    "type": "volost"
                },
                {
                    "name": "Гладковицька волость",
                    "name:ru": "Гладковичская волость",
                    "center:ru": "Гладковичи с.",
                    "name:en": "Hladkovytska volost",
                    "wikipedia": "uk:Гладковицька_волость",
                    "type": "volost",
                    "wikidata": "Q19692875",
                    "area:1885": "48937",
                    "population:1885": "7731",
                    "center:uk": "Гладковичі"
                },
                {
                    "name": "Іскоростська волость",
                    "name:ru": "Искоростьская волость",
                    "center:ru": "Искорость М.",
                    "wikipedia": "uk:Коростенська_волость",
                    "wikidata": "Q20073548",
                    "center:uk": "Іскорость",
                    "area:1885": "34325",
                    "population:1885": "11777",
                    "type": "volost"
                },
                {
                    "name": "Кисорицька волость",
                    "name:ru": "Кисоричская волость",
                    "center:ru": "Кисоричи с.",
                    "wikipedia": "uk:Кисорицька_волость",
                    "wikidata": "Q20077667",
                    "center:uk": "Кисаричі",
                    "area:1885": "71705",
                    "population:1885": "4298",
                    "type": "volost"
                },
                {
                    "name": "Лугинська волость",
                    "name:ru": "Лугинская волость",
                    "center:ru": "Лугины м.",
                    "wikipedia": "uk:Лугинська_волость",
                    "wikidata": "Q20081681",
                    "center:uk": "Лугини",
                    "area:1885": "26975",
                    "population:1885": "8124",
                    "type": "volost"
                },
                {
                    "name": "Народицька волость",
                    "name:ru": "Народичская волость",
                    "center:ru": "Народичи м.",
                    "wikipedia": "uk:Народицька_волость",
                    "wikidata": "Q12132426",
                    "center:uk": "Народичі",
                    "area:1885": "22275",
                    "population:1885": "8222",
                    "type": "volost"
                },
                {
                    "name": "Нововороб'ївська волость",
                    "name:ru": "Ново-Воробьевская волость",
                    "center:ru": "Новые-Воробьи с.",
                    "wikipedia": "uk:Нововороб'ївська_волость",
                    "wikidata": "Q20082953",
                    "type": "volost",
                    "area:1885": "38883",
                    "population:1885": "5552",
                    "center:uk": "Нові Вороб'ї"
                },
                {
                    "name": "Норинська волость",
                    "name:ru": "Норинская волость",
                    "center:ru": "Норинск м.",
                    "name:en": "Norynska volost",
                    "wikipedia": "uk:Норинська_волость",
                    "type": "volost",
                    "wikidata": "Q12134375",
                    "area:1885": "23412",
                    "population:1885": "5285",
                    "center:uk": "Норинськ"
                },
                {
                    "name": "Олевська волость",
                    "name:ru": "Олевская волость",
                    "center:ru": "Олевск м.",
                    "name:en": "Olevska volost",
                    "wikipedia": "uk:Олевська_волость",
                    "type": "volost",
                    "wikidata": "Q9271579",
                    "area:1885": "55181",
                    "population:1885": "5807",
                    "center:uk": "Олевськ"
                },
                {
                    "name": "Покалівська волость",
                    "name:ru": "Покалевская волость",
                    "center:ru": "Покалев с.",
                    "name:en": "Pokalivska volost",
                    "wikipedia": "uk:Покалівська_волость",
                    "type": "volost",
                    "wikidata": "Q20091444",
                    "area:1885": "21687",
                    "population:1885": "9763",
                    "center:uk": "Покалів"
                },
                {
                    "name": "Словечанська волость",
                    "name:ru": "Словечанская волость",
                    "center:ru": "Словечно м.",
                    "name:en": "Slovechanska volost",
                    "wikipedia": "uk:Словечанська_волость",
                    "type": "volost",
                    "wikidata": "Q12153748",
                    "area:1885": "58333",
                    "population:1885": "6061",
                    "center:uk": "Словечне"
                },
                {
                    "name": "Татарновицька волость",
                    "name:ru": "Татарновичская волость",
                    "center:ru": "Татарновичи с.",
                    "wikipedia": "uk:Татарновицька_волость",
                    "wikidata": "Q20093872",
                    "center:uk": "Татарновичі",
                    "area:1885": "31632",
                    "population:1885": "9938",
                    "type": "volost"
                },
                {
                    "name": "Христинівська волость",
                    "name:ru": "Христиновская волость",
                    "center:ru": "Христиновка с.",
                    "name:en": "Khry stynivska volost",
                    "wikipedia": "uk:Христинівська_волость_(Овруцький_повіт)",
                    "type": "volost",
                    "wikidata": "Q28707759",
                    "area:1885": "46751",
                    "population:1885": "5479",
                    "center:uk": "Христинівка"
                },
                {
                    "name": "Юрівська волость",
                    "name:ru": "Юровская волость",
                    "center:ru": "Юрова с.",
                    "wikipedia": "uk:Юрівська_волость_(Овруцький_повіт)",
                    "wikidata": "Q9270349",
                    "center:uk": "Юрово",
                    "area:1885": "93186",
                    "population:1885": "5904",
                    "type": "volost"
                }
            ]
        },
        {
            "name": "Острозький повіт",
            "name:ru": "Острожский уезд",
            "name:en": "Ostrozhsky uezd",
            "wikidata": "Q11825691",
            "wikipedia": "uk:Острозький_повіт",
            "type": "povit",
            "volosti": [
                {
                    "name": "Аннопільська волость",
                    "name:ru": "Аннопольская волость",
                    "center:ru": "Аннополь м.",
                    "name:en": "Annpilska volost",
                    "wikipedia": "uk:Аннопільська_волость",
                    "type": "volost",
                    "wikidata": "Q12078485",
                    "area:1885": "15138",
                    "population:1885": "7469",
                    "center:uk": "Ганнопіль"
                },
                {
                    "name": "Бугринська волость",
                    "name:ru": "Бугринская волость",
                    "center:ru": "Бугрин с.",
                    "name:en": "Bu hrynska volost",
                    "wikipedia": "uk:Бугринська_волость",
                    "type": "volost",
                    "wikidata": "Q9269283",
                    "area:1885": "15220",
                    "population:1885": "5494",
                    "center:uk": "Бугрин"
                },
                {
                    "name": "Гощанська волость",
                    "name:ru": "Гощская волость",
                    "center:ru": "Гоща м.",
                    "name:en": "Hoshchanska volost",
                    "wikipedia": "uk:Гощанська_волость",
                    "type": "volost",
                    "wikidata": "Q9270126",
                    "area:1885": "12621",
                    "population:1885": "6228",
                    "center:uk": "Гоща"
                },
                {
                    "name": "Довжанська волость",
                    "name:ru": "Должанская волость",
                    "center:ru": "Должек с.",
                    "name:en": "Dovzhanska volost",
                    "wikipedia": "uk:Довжанська_волость_(Волинська_губернія)",
                    "type": "volost",
                    "wikidata": "Q20076405",
                    "area:1885": "12397",
                    "population:1885": "5844",
                    "center:uk": "Довжок"
                },
                {
                    "name": "Здовбицька волость",
                    "name:ru": "Здолбицкая волость",
                    "center:ru": "Здолбица с.",
                    "wikipedia": "uk:Здовбицька_волость",
                    "type": "volost",
                    "wikidata": "Q11700920",
                    "center:uk": "Здовбиця",
                    "area:1885": "15831",
                    "population:1885": "6314"
                },
                {
                    "name": "Кривинська волость",
                    "name:ru": "Кривинская волость",
                    "center:ru": "Кривин с.",
                    "name:en": "Kryvynska volost",
                    "wikipedia": "uk:Кривинська_волость",
                    "type": "volost",
                    "wikidata": "Q12114662",
                    "area:1885": "13431",
                    "population:1885": "6967",
                    "center:uk": "Кривин"
                },
                {
                    "name": "Кунівська волость",
                    "name:ru": "Куневская волость",
                    "center:ru": "Кунев м.",
                    "name:en": "Kunivska volost",
                    "wikipedia": "uk:Кунівська_волость",
                    "type": "volost",
                    "wikidata": "Q12115841",
                    "area:1885": "10636",
                    "population:1885": "6020",
                    "center:uk": "Кунів"
                },
                {
                    "name": "Ляховецька волость",
                    "name:ru": "Ляховецкая волость",
                    "center:ru": "Ляховцы м.",
                    "name:en": "Lyakhovetska volost",
                    "wikipedia": "uk:Ляховецька_волость",
                    "type": "volost",
                    "wikidata": "Q12119479",
                    "area:1885": "10721",
                    "population:1885": "6444",
                    "center:uk": "Ляхівці"
                },
                {
                    "name": "Перерославська волость",
                    "name:ru": "Перерословская волость",
                    "center:ru": "Перерослое с.",
                    "name:en": "Pereroslavska volost",
                    "wikipedia": "uk:Перерославська_волость",
                    "type": "volost",
                    "wikidata": "Q12139780",
                    "area:1885": "16030",
                    "population:1885": "6777",
                    "center:uk": "Переросле"
                },
                {
                    "name": "Плужанська волость",
                    "name:ru": "Плужанская волость",
                    "center:ru": "Плужное с.",
                    "name:en": "Pluzhanska volost",
                    "wikipedia": "uk:Плужанська_волость",
                    "type": "volost",
                    "wikidata": "Q12141094",
                    "area:1885": "7912",
                    "population:1885": "7161",
                    "center:uk": "Плужне"
                },
                {
                    "name": "Семенівська волость",
                    "name:ru": "Семеновская волость",
                    "center:ru": "Семенов с.",
                    "name:en": "Semenivska volost",
                    "wikipedia": "uk:Семенівська_волость_(Острозький_повіт)",
                    "type": "volost",
                    "wikidata": "Q20092903",
                    "area:1885": "13212",
                    "population:1885": "6264",
                    "center:uk": "Семенів"
                },
                {
                    "name": "Сіянецька волость",
                    "name:ru": "Сиянецкая волость",
                    "center:ru": "Сиянцы с.",
                    "name:en": "Ostrozhsky volost",
                    "wikipedia": "uk:Сіянецька_волость",
                    "wikidata": "Q9272403",
                    "population:1885": "5796",
                    "area:1885": "13691",
                    "type": "volost",
                    "center:uk": "Сіянці",
                    "settlements": [
                        {
                            "name": "Сіянці",
                            "name:ru": "Сеянцы",
                            "name:en": "Siiantsi",
                            "name:pl": "Sijańce",
                            "wikidata": "Q4418142",
                            "wikipedia": "uk:Сіянці",
                            "population": 109,
                            "houses": 723,
                            "type": "с."
                        }
                    ]
                },
                {
                    "name": "Уніївська волость",
                    "name:ru": "Униевская волость",
                    "center:ru": "Униев с.",
                    "name:en": "Uniyivska volost",
                    "wikipedia": "uk:Уніївська_волость",
                    "type": "volost",
                    "wikidata": "Q20096459",
                    "area:1885": "13042",
                    "population:1885": "6319",
                    "center:uk": "Уніїв"
                },
                {
                    "name": "Хорівська волость",
                    "name:ru": "Хоровская волость",
                    "center:ru": "Хоров с.",
                    "name:en": "Khorivska volost",
                    "wikipedia": "uk:Хорівська_волость_(Острозький_повіт)",
                    "type": "volost",
                    "wikidata": "Q9269439",
                    "area:1885": "13746",
                    "population:1885": "6124",
                    "center:uk": "Хорів"
                }
            ]
        },
        {
            "name": "Ровенський повіт",
            "name:ru": "Ровенский уезд",
            "name:en": "Rovensky uezd",
            "wikidata": "Q12104653",
            "wikipedia": "uk:Ровенський_повіт",
            "type": "povit",
            "volosti": [
                {
                    "name": "Березенська волость",
                    "name:ru": "Березенская волость",
                    "center:ru": "Березно м.",
                    "wikipedia": "uk:Березенська_волость",
                    "wikidata": "Q9268992",
                    "center:uk": "Березне",
                    "area:1885": "56893",
                    "population:1885": "10980",
                    "type": "volost"
                },
                {
                    "name": "Вирівська волость",
                    "name:ru": "Выровская волость",
                    "center:ru": "Выры д.",
                    "wikipedia": "uk:Вирівська_волость_(Рівненський_повіт)",
                    "wikidata": "Q9273276",
                    "center:uk": "Вири",
                    "area:1885": "45854",
                    "population:1885": "4823",
                    "type": "volost"
                },
                {
                    "name": "Висоцька волость",
                    "name:ru": "Высоцкая волость",
                    "center:ru": "Высоцк м.",
                    "wikipedia": "uk:Висоцька_волость",
                    "wikidata": "Q9273434",
                    "center:uk": "Висоцьк",
                    "area:1885": "67087",
                    "population:1885": "7768",
                    "type": "volost"
                },
                {
                    "name": "Дераженська волость",
                    "name:ru": "Дераженская волость",
                    "center:ru": "Деражно м.",
                    "wikipedia": "uk:Дераженська_волость",
                    "wikidata": "Q9269623",
                    "center:uk": "Деражне",
                    "area:1885": "16052",
                    "population:1885": "6202",
                    "type": "volost"
                },
                {
                    "name": "Домбровицька волость",
                    "name:ru": "Домбровицкая волость",
                    "center:ru": "Домбровица м.",
                    "wikipedia": "uk:Домбровицька_волость",
                    "wikidata": "Q9269811",
                    "center:uk": "Домбровиця",
                    "area:1885": "23994",
                    "population:1916": "11990",
                    "type": "volost"
                },
                {
                    "name": "Дятковицька волость",
                    "name:ru": "Дяткевичская волость",
                    "center:ru": "Дяткевиче с.",
                    "wikipedia": "uk:Дятковицька_волость",
                    "wikidata": "Q9269763",
                    "center:uk": "Дятковичі",
                    "area:1885": "24222",
                    "population:1885": "7965",
                    "type": "volost"
                },
                {
                    "name": "Клеванська волость",
                    "name:ru": "Клеванская волость",
                    "center:ru": "Клевань м.",
                    "name:en": "Klevanska volost",
                    "wikipedia": "uk:Клеванська_волость",
                    "type": "volost",
                    "wikidata": "Q9270460",
                    "area:1885": "9891",
                    "population:1885": "6781",
                    "center:uk": "Клевань"
                },
                {
                    "name": "Костопільська волость",
                    "name:ru": "Костопольская волость",
                    "center:ru": "Костополь м.",
                    "wikipedia": "uk:Підлужанська_волость",
                    "wikidata": "Q9270575",
                    "center:uk": "Костопіль",
                    "area:1885": "41417",
                    "population:1885": "9598",
                    "type": "volost"
                },
                {
                    "name": "Кустинська волость",
                    "name:ru": "Кустинская волость",
                    "center:ru": "Кустин с.",
                    "name:en": "Kustynska volost",
                    "wikipedia": "uk:Кустинська_волость",
                    "type": "volost",
                    "wikidata": "Q9268901",
                    "area:1885": "30263",
                    "population:1885": "7042",
                    "center:uk": "Кустин"
                },
                {
                    "name": "Любиковицька волость",
                    "name:ru": "Любиковичская волость",
                    "center:ru": "Любиковичи с.",
                    "wikipedia": "uk:Любиковицька_волость",
                    "wikidata": "Q20081730",
                    "center:uk": "Любиковичі",
                    "area:1885": "28183",
                    "population:1885": "6637",
                    "type": "volost"
                },
                {
                    "name": "Межиріцька волость",
                    "name:ru": "Межиричская волость",
                    "center:ru": "Межирич м.",
                    "wikipedia": "uk:Межиріцька_волость_(Рівненський_повіт)",
                    "wikidata": "Q9271217",
                    "center:uk": "Межиріч",
                    "area:1885": "42796",
                    "population:1885": "8502",
                    "type": "volost"
                },
                {
                    "name": "Немовицька волость",
                    "name:ru": "Немовичская волость",
                    "center:ru": "Немовичи сел.",
                    "wikipedia": "uk:Немовицька_волость",
                    "wikidata": "Q9271411",
                    "center:uk": "Немовичі",
                    "area:1885": "39311",
                    "population:1885": "5609",
                    "type": "volost"
                },
                {
                    "name": "Рівненська волость",
                    "name:ru": "Ровенская волость",
                    "center:ru": "Ровно г.",
                    "wikipedia": "uk:Рівненська_волость",
                    "wikidata": "Q9272310",
                    "center:uk": "Рівне",
                    "area:1885": "17534",
                    "population:1885": "7778",
                    "type": "volost"
                },
                {
                    "name": "Селищенська волость",
                    "name:ru": "Селищская волость",
                    "center:ru": "Людвиполь м.",
                    "wikipedia": "uk:Селищенська_волость",
                    "wikidata": "Q20092890",
                    "center:uk": "Селищі",
                    "area:1885": "39280",
                    "population:1885": "9380",
                    "type": "volost"
                },
                {
                    "name": "Степанська волость",
                    "name:ru": "Степанская волость",
                    "center:ru": "Степань м.",
                    "name:en": "Stepanska volost",
                    "wikipedia": "uk:Степанська_волость_(Рівненський_повіт)",
                    "type": "volost",
                    "wikidata": "Q9272635",
                    "area:1885": "53414",
                    "population:1885": "11297",
                    "center:uk": "Степань"
                },
                {
                    "name": "Стидинська волость",
                    "name:ru": "Стыдинская волость",
                    "center:ru": "Стыдини-Бельш. с.",
                    "wikipedia": "uk:Стидинська_волость",
                    "wikidata": "Q9272700",
                    "center:uk": "Великі Стидини",
                    "area:1885": "24880",
                    "population:1885": "5572",
                    "type": "volost"
                },
                {
                    "name": "Тучинська волость",
                    "name:ru": "Тучинская волость",
                    "center:ru": "Тучин м-ко",
                    "wikipedia": "uk:Тучинська_волость",
                    "wikidata": "Q9272981",
                    "center:uk": "Тучин",
                    "area:1885": "29759",
                    "population:1885": "15190",
                    "type": "volost"
                }
            ]
        },
        {
            "name": "Старокостянтинівський повіт",
            "name:ru": "Староконстантиновский уезд",
            "name:en": "Starokonstantinovsky uezd",
            "wikidata": "Q4440430",
            "wikipedia": "uk:Старокостянтинівський_повіт",
            "type": "povit",
            "volosti": [
                {
                    "name": "Авратинська волость",
                    "name:ru": "Авратинская волость",
                    "center:ru": "Шибенна с.",
                    "wikipedia": "uk:Авратинська_волость",
                    "type": "volost",
                    "area:1886": "11173",
                    "population:1885": 7070,
                    "wikidata": "Q16690671",
                    "population:1886": "7070",
                    "center:uk": "Шибенка"
                },
                {
                    "name": "Базалійська волость",
                    "name:ru": "Базалийская волость",
                    "center:ru": "Базалия м-ко",
                    "wikipedia": "uk:Базалійська_волость",
                    "wikidata": "Q12080281",
                    "center:uk": "Базалія",
                    "area:1885": "11811",
                    "population:1885": "7179",
                    "type": "volost"
                },
                {
                    "name": "Волочиська волость",
                    "name:ru": "Волочиская волость",
                    "center:ru": "Волочиск м.",
                    "wikipedia": "uk:Волочиська_волость",
                    "wikidata": "Q16694885",
                    "center:uk": "Волочиськ",
                    "area:1886": "12039",
                    "population:1886": "9180",
                    "type": "volost"
                },
                {
                    "name": "Колківська волость",
                    "name:ru": "Колковская волость",
                    "center:ru": "Колки с.",
                    "wikipedia": "uk:Корчівська_волость",
                    "wikidata": "Q16702108",
                    "center:uk": "Колки",
                    "area:1886": "11614",
                    "population:1886": "5756",
                    "type": "volost"
                },
                {
                    "name": "Красилівська волость",
                    "name:ru": "Красиловская волость",
                    "center:ru": "Красилов м.",
                    "name:en": "Krasylivska volost",
                    "wikipedia": "uk:Красилівська_волость_(Старокостянтинівський_повіт)",
                    "type": "volost",
                    "wikidata": "Q16703163",
                    "area:1886": "11699",
                    "population:1886": "8266",
                    "center:uk": "Красилів"
                },
                {
                    "name": "Кульчинецька волость",
                    "name:ru": "Кульчинецкая волость",
                    "center:ru": "Кульчины м.",
                    "wikipedia": "uk:Кульчинецька_волость",
                    "wikidata": "Q16704068",
                    "center:uk": "Кульчини",
                    "area:1886": "10054",
                    "population:1886": "5242",
                    "type": "volost"
                },
                {
                    "name": "Купільська волость",
                    "name:ru": "Купельская волость",
                    "center:ru": "Купель м.",
                    "wikipedia": "uk:Купільська_волость",
                    "wikidata": "Q16704140",
                    "center:uk": "Купіль",
                    "area:1886": "12039",
                    "population:1886": "9180",
                    "type": "volost"
                },
                {
                    "name": "Маначинська волость",
                    "name:ru": "Маначинская волость",
                    "center:ru": "Гарнишевка д.",
                    "wikipedia": "uk:Маначинська_волость",
                    "wikidata": "Q16706231",
                    "center:uk": "Маначин",
                    "area:1886": "11064",
                    "population:1886": "7135",
                    "type": "volost"
                },
                {
                    "name": "Решнівецька волость",
                    "name:ru": "Решневецкая волость",
                    "center:ru": "Решневка с.",
                    "wikipedia": "uk:Решнівецька_волость",
                    "wikidata": "Q16714316",
                    "center:uk": "Огіївці",
                    "area:1886": "11060",
                    "population:1886": "6041",
                    "type": "volost"
                },
                {
                    "name": "Сковородецька волость",
                    "name:ru": "Сковородецкая волость",
                    "center:ru": "Сковородки с.",
                    "name:en": "Skovorodetska volost",
                    "wikipedia": "uk:Сковородецька_волость",
                    "type": "volost",
                    "wikidata": "Q16716556",
                    "area:1886": "8721",
                    "population:1886": "4198",
                    "center:uk": "Сковородки"
                },
                {
                    "name": "Старокостянтинівська волость",
                    "name:ru": "Староконстановская волость",
                    "center:ru": "Новомейская слоб.",
                    "wikipedia": "uk:Старокостянтинівська_волость",
                    "wikidata": "Q16717920",
                    "center:uk": "Старокостянтинів",
                    "area:1886": "14642",
                    "population:1886": "8916",
                    "type": "volost"
                },
                {
                    "name": "Теофіпольська волость",
                    "name:ru": "Теофипольская волость",
                    "center:ru": "Теофиполь м.",
                    "name:en": "Teofipolska volost",
                    "wikipedia": "uk:Теофіпольська_волость",
                    "type": "volost",
                    "wikidata": "Q16719582",
                    "area:1886": "11942",
                    "population:1886": "7851",
                    "center:uk": "Теофіполь"
                },
                {
                    "name": "Чернелевецька волость",
                    "name:ru": "Чернелевецкая волость",
                    "center:ru": "Чернелевка с.",
                    "wikipedia": "uk:Чернелевецька_волость",
                    "wikidata": "Q16723208",
                    "center:uk": "Чернелівка",
                    "area:1886": "11137",
                    "population:1886": "5050",
                    "type": "volost"
                }
            ]
        }
    ]
}